{
    "links": {
        "self": "http://www.neowsapp.com/rest/v1/neo/3599109?api_key=iIulBulltgU6a56xZRHN4H3l9WmuAYTsLGpBGhQ2"
    },
    "id": "3599109",
    "neo_reference_id": "3599109",
    "name": "(2012 CC29)",
    "designation": "2012 CC29",
    "nasa_jpl_url": "http://ssd.jpl.nasa.gov/sbdb.cgi?sstr=3599109",
    "absolute_magnitude_h": 22.3,
    "estimated_diameter": {
        "kilometers": {
            "estimated_diameter_min": 0.0921626549,
            "estimated_diameter_max": 0.2060819612
        },
        "meters": {
            "estimated_diameter_min": 92.1626548503,
            "estimated_diameter_max": 206.0819612321
        },
        "miles": {
            "estimated_diameter_min": 0.057267201,
            "estimated_diameter_max": 0.1280533543
        },
        "feet": {
            "estimated_diameter_min": 302.370924539,
            "estimated_diameter_max": 676.1219416887
        }
    },
    "is_potentially_hazardous_asteroid": false,
    "close_approach_data": [
        {
            "close_approach_date": "2006-04-09",
            "close_approach_date_full": "2006-Apr-09 01:54",
            "epoch_date_close_approach": 1144547640000,
            "relative_velocity": {
                "kilometers_per_second": "5.7400034447",
                "kilometers_per_hour": "20664.0124010839",
                "miles_per_hour": "12839.8137055513"
            },
            "miss_distance": {
                "astronomical": "1.095362679",
                "lunar": "426.096082131",
                "kilometers": "163863923.65589373",
                "miles": "101820320.688764274"
            },
            "orbiting_body": "Juptr"
        },
        {
            "close_approach_date": "2008-05-30",
            "close_approach_date_full": "2008-May-30 23:15",
            "epoch_date_close_approach": 1212189300000,
            "relative_velocity": {
                "kilometers_per_second": "20.5803271879",
                "kilometers_per_hour": "74089.1778763367",
                "miles_per_hour": "46036.1338865493"
            },
            "miss_distance": {
                "astronomical": "0.0565501261",
                "lunar": "21.9979990529",
                "kilometers": "8459778.412791407",
                "miles": "5256662.5510271366"
            },
            "orbiting_body": "Mars"
        },
        {
            "close_approach_date": "2012-01-23",
            "close_approach_date_full": "2012-Jan-23 06:30",
            "epoch_date_close_approach": 1327300200000,
            "relative_velocity": {
                "kilometers_per_second": "18.6268676327",
                "kilometers_per_hour": "67056.7234778233",
                "miles_per_hour": "41666.4402076508"
            },
            "miss_distance": {
                "astronomical": "0.1509218981",
                "lunar": "58.7086183609",
                "kilometers": "22577594.492117047",
                "miles": "14029066.6809353686"
            },
            "orbiting_body": "Earth"
        }
    ],
    "orbital_data": {
        "orbit_id": "8",
        "orbit_determination_date": "2017-04-06 08:51:00",
        "first_observation_date": "2012-02-13",
        "last_observation_date": "2012-03-13",
        "data_arc_in_days": 29,
        "observations_used": 32,
        "orbit_uncertainty": "7",
        "minimum_orbit_intersection": ".0199464",
        "jupiter_tisserand_invariant": "3.003",
        "epoch_osculation": "2459000.5",
        "eccentricity": ".7787151879414276",
        "semi_major_axis": "2.423961660409114",
        "inclination": "1.940513361322942",
        "ascending_node_longitude": "170.8230691484664",
        "orbital_period": "1378.437395059534",
        "perihelion_distance": ".536385900460816",
        "perihelion_argument": "230.8750955512052",
        "aphelion_distance": "4.311537420357412",
        "perihelion_time": "2458683.237535503180",
        "mean_anomaly": "82.85794307975978",
        "mean_motion": ".2611652885290825",
        "equinox": "J2000",
        "orbit_class": {
            "orbit_class_type": "APO",
            "orbit_class_description": "Near-Earth asteroid orbits which cross the Earth’s orbit similar to that of 1862 Apollo",
            "orbit_class_range": "a (semi-major axis) > 1.0 AU; q (perihelion) < 1.017 AU"
        }
    },
    "is_sentry_object": false
}